HELIOS 2A               
1 28492U 04049A   22207.52534506  .00000859  00000+0  88074-4 0  9997
2 28492  98.2342 152.3790 0013315 317.1277  42.8876 14.93228861940959
CFESAT                  
1 30777U 07006F   22207.25508489  .00071716  00000+0  80599-3 0  9996
2 30777  35.4190  41.0075 0005748  20.8546 339.2422 15.61404523855143
SPIRALE A               
1 33751U 09008C   22206.75441313  .00000062  00000+0  35793-3 0  9993
2 33751   2.0098 219.8314 5435008 317.0808  11.3837  4.58854324196574
SPIRALE B               
1 33752U 09008D   22206.50692260  .00005886  00000+0  94442-3 0  9991
2 33752   2.0428  91.3087 6871045 195.7752 121.3377  2.82409278126154
SAPPHIRE                
1 39088U 13009C   22206.99397169  .00000056  00000+0  35280-4 0  9998
2 39088  98.4261  41.7887 0011777 156.6893 203.4829 14.34312233492667
